ONEWEB-0340             
1 49206U 21083W   26022.45124985  .00000003  00000+0 -25038-4 0  9990
2 49206  87.9199   4.3844 0001904  84.5841 275.5508 13.18686643210767
ONEWEB-0341             
1 49207U 21083X   26022.45785810  .00000086  00000+0  18489-3 0  9992
2 49207  87.9193   4.3939 0001902 101.8170 258.3175 13.18686145210781
ONEWEB-0342             
1 49208U 21083Y   26022.29177932  .00000069  00000+0  13718-3 0  9996
2 49208  87.9231 303.5447 0001594  73.4562 286.6746 13.20772755217522
ONEWEB-0343             
1 49209U 21083Z   26022.46609684  .00000142  00000+0  32662-3 0  9991
2 49209  87.9197   4.3860 0001499 101.4143 258.7157 13.18686948210838
ONEWEB-0344             
1 49210U 21083AA  26022.31594064 -.00000203  00000+0 -59177-3 0  9992
2 49210  87.8998 349.2489 0001867  95.5318 264.6024 13.13470477211745
ONEWEB-0345             
1 49211U 21083AB  26022.45981669 -.00000119  00000+0 -36199-3 0  9994
2 49211  87.9010 349.1833 0001803  94.2602 265.8733 13.13471011211774
ONEWEB-0346             
1 49212U 21083AC  26022.46280778 -.00000003  00000+0 -39945-4 0  9994
2 49212  87.9188   4.3989 0002514  84.2844 275.8574 13.18685014210778
ONEWEB-0348             
1 49213U 21083AD  26022.28230388  .00000064  00000+0  12450-3 0  9993
2 49213  87.9231 303.5501 0002187  86.9878 273.1505 13.20770803217556
